IRIDIUM 106             
1 41917U 17003A   25280.46368645  .00000466  00000+0  15920-3 0  9997
2 41917  86.4038 194.1078 0002337  70.8062 289.3387 14.34217580456988
IRIDIUM 103             
1 41918U 17003B   25280.24169582  .00000351  00000+0  11834-3 0  9996
2 41918  86.4039 194.1010 0002669  85.2418 274.9083 14.34217620456976
IRIDIUM 109             
1 41919U 17003C   25280.31778170  .00000455  00000+0  15542-3 0  9999
2 41919  86.4031 194.1254 0002312  87.8040 272.3420 14.34212682456951
IRIDIUM 102             
1 41920U 17003D   25280.77446378  .00000580  00000+0  20001-3 0  9998
2 41920  86.4034 193.8632 0002138  85.2796 274.8644 14.34216260457107
IRIDIUM 105             
1 41921U 17003E   25280.39644326  .00000416  00000+0  14147-3 0  9992
2 41921  86.4026 162.5360 0002275  84.7792 275.3663 14.34228214458900
IRIDIUM 104             
1 41922U 17003F   25280.50807922  .00000400  00000+0  13594-3 0  9997
2 41922  86.4038 194.0131 0002399  91.2660 268.8811 14.34216020457053
IRIDIUM 114             
1 41923U 17003G   25280.72373265  .00000378  00000+0  12786-3 0  9996
2 41923  86.4037 193.9073 0002401  83.6231 276.5238 14.34217989457064
IRIDIUM 108             
1 41924U 17003H   25280.68225139  .00000356  00000+0  12019-3 0  9993
2 41924  86.4018 162.3110 0001936  81.0041 279.1374 14.34217668458918
